{"type":"FeatureCollection","features":[{"type":"Feature","id":1,"geometry":{"type":"Point","coordinates":[-80.539706380347,43.4700710499995]},"properties":{"ObjectId":1,"buildingId":"001","buildingCode":"DWE","parentBuildingCode":null,"buildingName":"Douglas Wright Engineering Building","alternateBuildingNames":null,"GlobalID":"f5835068-7f70-4afa-bb50-627754d22387","SmallScale":"DWE","Identifier":"M"}},{"type":"Feature","id":2,"geometry":{"type":"Point","coordinates":[-80.5404122396664,43.4710434497829]},"properties":{"ObjectId":2,"buildingId":"002","buildingCode":"E2","parentBuildingCode":null,"buildingName":"Engineering 2","alternateBuildingNames":null,"GlobalID":"e4b25175-a7b6-4d65-a15a-4d1268fa5de5","SmallScale":"E2","Identifier":"M"}},{"type":"Feature","id":3,"geometry":{"type":"Point","coordinates":[-80.5408628498843,43.4717441997802]},"properties":{"ObjectId":3,"buildingId":"003","buildingCode":"E3","parentBuildingCode":null,"buildingName":"Engineering 3","alternateBuildingNames":null,"GlobalID":"17d50ed0-95ac-4c6a-b264-6e156189ed0e","SmallScale":"E3","Identifier":"M"}},{"type":"Feature","id":4,"geometry":{"type":"Point","coordinates":[-80.5415380595844,43.4708480499015]},"properties":{"ObjectId":4,"buildingId":"004","buildingCode":"PHY","parentBuildingCode":null,"buildingName":"Physics","alternateBuildingNames":null,"GlobalID":"c5f11e70-2762-41d6-be2a-b88ef2e390e1","SmallScale":"PHY","Identifier":"M"}},{"type":"Feature","id":5,"geometry":{"type":"Point","coordinates":[-80.5428798704294,43.4690968801785]},"properties":{"ObjectId":5,"buildingId":"005","buildingCode":"ML","parentBuildingCode":null,"buildingName":"Modern Languages","alternateBuildingNames":null,"GlobalID":"3a2e9d19-9422-468e-8330-10faa8e2406f","SmallScale":"ML","Identifier":"M"}},{"type":"Feature","id":6,"geometry":{"type":"Point","coordinates":[-80.5427028502161,43.4713490601474]},"properties":{"ObjectId":6,"buildingId":"006","buildingCode":"ESC","parentBuildingCode":null,"buildingName":"Earth Sciences & Chemistry","alternateBuildingNames":null,"GlobalID":"878ef89d-2d44-4adb-b765-ac887b2d3197","SmallScale":"ESC","Identifier":"M"}},{"type":"Feature","id":7,"geometry":{"type":"Point","coordinates":[-80.5429846103982,43.4707354003044]},"properties":{"ObjectId":7,"buildingId":"007","buildingCode":"B1","parentBuildingCode":null,"buildingName":"Biology 1","alternateBuildingNames":null,"GlobalID":"f2034157-84c3-458c-8ad8-c103b729035c","SmallScale":"B1","Identifier":"M"}},{"type":"Feature","id":8,"geometry":{"type":"Point","coordinates":[-80.5424292602115,43.4698443701492]},"properties":{"ObjectId":8,"buildingId":"008","buildingCode":"LIB","parentBuildingCode":null,"buildingName":"Dana Porter Arts Library","alternateBuildingNames":null,"GlobalID":"61544725-e364-405b-bee6-275c667a40fe","SmallScale":"LIB","Identifier":"M"}},{"type":"Feature","id":9,"geometry":{"type":"Point","coordinates":[-80.5418713597077,43.4689411497374]},"properties":{"ObjectId":9,"buildingId":"009","buildingCode":"AL","parentBuildingCode":null,"buildingName":"Arts Lecture Hall","alternateBuildingNames":null,"GlobalID":"2e20297c-61ea-4f8f-819d-c0043dc564f5","SmallScale":"AL","Identifier":"M"}},{"type":"Feature","id":10,"geometry":{"type":"Point","coordinates":[-80.5426223800313,43.4683961001391]},"properties":{"ObjectId":10,"buildingId":"010","buildingCode":"EV1","parentBuildingCode":null,"buildingName":"Environment 1","alternateBuildingNames":null,"GlobalID":"abbd3240-0d61-4d64-824e-790a35179498","SmallScale":"EV1","Identifier":"M"}},{"type":"Feature","id":11,"geometry":{"type":"Point","coordinates":[-80.5408413900304,43.4703115500277]},"properties":{"ObjectId":11,"buildingId":"011","buildingCode":"RCH","parentBuildingCode":null,"buildingName":"J.R. Coutts Engineering Lecture Hall","alternateBuildingNames":"Engineering Lecture Hall","GlobalID":"8d522344-1924-4ef9-854c-dc1981bcafb8","SmallScale":"RCH","Identifier":"M"}},{"type":"Feature","id":12,"geometry":{"type":"Point","coordinates":[-80.5437889798699,43.473762799728]},"properties":{"ObjectId":12,"buildingId":"012","buildingCode":"CSB","parentBuildingCode":null,"buildingName":"Central Services Building","alternateBuildingNames":null,"GlobalID":"2af6c11e-4b6b-4520-b28b-eef672b626cc","SmallScale":"CSB","Identifier":"M"}},{"type":"Feature","id":13,"geometry":{"type":"Point","coordinates":[-80.5437287397453,43.4708179001142]},"properties":{"ObjectId":13,"buildingId":"013","buildingCode":"B2","parentBuildingCode":null,"buildingName":"Biology 2","alternateBuildingNames":null,"GlobalID":"e00bdb11-6603-4edd-bdf7-8ce40be72593","SmallScale":"B2","Identifier":"M"}},{"type":"Feature","id":14,"geometry":{"type":"Point","coordinates":[-80.5430837197269,43.4734220699473]},"properties":{"ObjectId":14,"buildingId":"014","buildingCode":"GSC","parentBuildingCode":null,"buildingName":"General Services Complex","alternateBuildingNames":null,"GlobalID":"fedb5403-09ea-4db6-9eab-89104447ecbb","SmallScale":"GSC","Identifier":"M"}},{"type":"Feature","id":15,"geometry":{"type":"Point","coordinates":[-80.542921180356,43.4741279501509]},"properties":{"ObjectId":15,"buildingId":"015","buildingCode":"COM","parentBuildingCode":null,"buildingName":"Commissary","alternateBuildingNames":null,"GlobalID":"28ad4e36-0157-4341-9f17-46150c7a7a85","SmallScale":"COM","Identifier":"M"}},{"type":"Feature","id":16,"geometry":{"type":"Point","coordinates":[-80.5402133796119,43.4692188002568]},"properties":{"ObjectId":16,"buildingId":"016","buildingCode":"SCH","parentBuildingCode":null,"buildingName":"South Campus Hall","alternateBuildingNames":null,"GlobalID":"f4bc1a4b-37a5-4c78-99b5-b499cc008a06","SmallScale":"SCH","Identifier":"M"}},{"type":"Feature","id":17,"geometry":{"type":"Point","coordinates":[-80.5439473896854,43.4720751100814]},"properties":{"ObjectId":17,"buildingId":"017","buildingCode":"MC","parentBuildingCode":null,"buildingName":"Mathematics & Computer Building","alternateBuildingNames":null,"GlobalID":"d5c48b52-08c7-4cb6-9fef-66ab657249a8","SmallScale":"MC","Identifier":"M"}},{"type":"Feature","id":18,"geometry":{"type":"Point","coordinates":[-80.5461333896237,43.4724235302447]},"properties":{"ObjectId":18,"buildingId":"018","buildingCode":"PAC","parentBuildingCode":null,"buildingName":"Physical Activities Complex","alternateBuildingNames":null,"GlobalID":"d907baf3-2a23-4dac-9362-811d303fcd5c","SmallScale":"PAC","Identifier":"M"}},{"type":"Feature","id":19,"geometry":{"type":"Point","coordinates":[-80.5454549998874,43.4716010002214]},"properties":{"ObjectId":19,"buildingId":"019","buildingCode":"SLC","parentBuildingCode":null,"buildingName":"Student Life Centre","alternateBuildingNames":null,"GlobalID":"d7471dd5-0cef-4d3e-9628-764d437fefcd","SmallScale":"SLC","Identifier":"M"}},{"type":"Feature","id":21,"geometry":{"type":"Point","coordinates":[-80.5499599998333,43.4716000001742]},"properties":{"ObjectId":21,"buildingId":"20CC","buildingCode":"V1C","parentBuildingCode":"V1","buildingName":"Student Village 1 Central Complex","alternateBuildingNames":null,"GlobalID":"0aae53fd-ab36-49cd-8e65-491569c791fe","SmallScale":"V1C","Identifier":"S"}},{"type":"Feature","id":22,"geometry":{"type":"Point","coordinates":[-80.549317000126,43.4717449996857]},"properties":{"ObjectId":22,"buildingId":"20E1","buildingCode":"VE1","parentBuildingCode":"V1","buildingName":"Student Village 1 House East 1","alternateBuildingNames":null,"GlobalID":"f656d48f-4030-4e11-a522-d7c78a5e0cc7","SmallScale":"VE1","Identifier":"S"}},{"type":"Feature","id":23,"geometry":{"type":"Point","coordinates":[-80.549016999652,43.4718209997899]},"properties":{"ObjectId":23,"buildingId":"20E2","buildingCode":"VE2","parentBuildingCode":"V1","buildingName":"Student Village 1 House East 2","alternateBuildingNames":null,"GlobalID":"09fb5cad-cffb-4966-a20f-8456707bc7d2","SmallScale":"VE2","Identifier":"S"}},{"type":"Feature","id":24,"geometry":{"type":"Point","coordinates":[-80.5486119995961,43.4717599997053]},"properties":{"ObjectId":24,"buildingId":"20E3","buildingCode":"VE3","parentBuildingCode":"V1","buildingName":"Student Village 1 House East 3","alternateBuildingNames":null,"GlobalID":"4787bbd3-24d8-455d-a89a-8a4c72a32a58","SmallScale":"VE3","Identifier":"S"}},{"type":"Feature","id":25,"geometry":{"type":"Point","coordinates":[-80.5485260002806,43.4715679999563]},"properties":{"ObjectId":25,"buildingId":"20E4","buildingCode":"VE4","parentBuildingCode":"V1","buildingName":"Student Village 1 House East 4","alternateBuildingNames":null,"GlobalID":"91cc3a71-2b4e-437e-b44d-9bd496b4f06a","SmallScale":"VE4","Identifier":"S"}},{"type":"Feature","id":26,"geometry":{"type":"Point","coordinates":[-80.5489170000929,43.4714989998772]},"properties":{"ObjectId":26,"buildingId":"20E5","buildingCode":"VE5","parentBuildingCode":"V1","buildingName":"Student Village 1 House East 5","alternateBuildingNames":null,"GlobalID":"9e3cffe1-8804-42e8-9daf-5d64855ec5a2","SmallScale":"VE5","Identifier":"S"}},{"type":"Feature","id":27,"geometry":{"type":"Point","coordinates":[-80.5493039997072,43.4714429997173]},"properties":{"ObjectId":27,"buildingId":"20E6","buildingCode":"VE6","parentBuildingCode":"V1","buildingName":"Student Village 1 House East 6","alternateBuildingNames":null,"GlobalID":"1c54e7c4-bd0e-436b-ae67-12425843e8c6","SmallScale":"VE6","Identifier":"S"}},{"type":"Feature","id":28,"geometry":{"type":"Point","coordinates":[-80.5500300001535,43.4720899998451]},"properties":{"ObjectId":28,"buildingId":"20N1","buildingCode":"VN1","parentBuildingCode":"V1","buildingName":"Student Village 1 House North 1","alternateBuildingNames":null,"GlobalID":"3e4fcb3a-b946-488f-8cdd-93998025569c","SmallScale":"VN1","Identifier":"S"}},{"type":"Feature","id":29,"geometry":{"type":"Point","coordinates":[-80.5502300001701,43.4722839999635]},"properties":{"ObjectId":29,"buildingId":"20N2","buildingCode":"VN2","parentBuildingCode":"V1","buildingName":"Student Village 1 House North 2","alternateBuildingNames":null,"GlobalID":"e9c7e125-5b94-485e-be74-10f251a7d872","SmallScale":"VN2","Identifier":"S"}},{"type":"Feature","id":30,"geometry":{"type":"Point","coordinates":[-80.5499399997418,43.4724200001388]},"properties":{"ObjectId":30,"buildingId":"20N3","buildingCode":"VN3","parentBuildingCode":"V1","buildingName":"Student Village 1 House North 3","alternateBuildingNames":null,"GlobalID":"4fd1325b-b583-4eda-aeeb-d03bde0b5b4c","SmallScale":"VN3","Identifier":"S"}},{"type":"Feature","id":31,"geometry":{"type":"Point","coordinates":[-80.5495999999832,43.4725000001757]},"properties":{"ObjectId":31,"buildingId":"20N4","buildingCode":"VN4","parentBuildingCode":"V1","buildingName":"Student Village 1 House North 4","alternateBuildingNames":null,"GlobalID":"1e029e2e-40e6-45d0-8779-96b6fa02764d","SmallScale":"VN4","Identifier":"S"}},{"type":"Feature","id":32,"geometry":{"type":"Point","coordinates":[-80.549309999555,43.4722400003205]},"properties":{"ObjectId":32,"buildingId":"20N5","buildingCode":"VN5","parentBuildingCode":"V1","buildingName":"Student Village 1 House North 5","alternateBuildingNames":null,"GlobalID":"7d591c7f-09b2-47a0-a23b-f0aa1d12f1dc","SmallScale":"VN5","Identifier":"S"}},{"type":"Feature","id":33,"geometry":{"type":"Point","coordinates":[-80.5495599998003,43.4720500002205]},"properties":{"ObjectId":33,"buildingId":"20N6","buildingCode":"VN6","parentBuildingCode":"V1","buildingName":"Student Village 1 House North 6","alternateBuildingNames":null,"GlobalID":"5b451436-8fab-4498-b715-97ee8afacc3d","SmallScale":"VN6","Identifier":"S"}},{"type":"Feature","id":34,"geometry":{"type":"Point","coordinates":[-80.5499370002671,43.4711119999008]},"properties":{"ObjectId":34,"buildingId":"20S1","buildingCode":"VS1","parentBuildingCode":"V1","buildingName":"Student Village 1 House South 1","alternateBuildingNames":null,"GlobalID":"f2c942ab-5048-486b-a291-0fa461fe4507","SmallScale":"VS1","Identifier":"S"}},{"type":"Feature","id":35,"geometry":{"type":"Point","coordinates":[-80.5498910002364,43.4708650000641]},"properties":{"ObjectId":35,"buildingId":"20S2","buildingCode":"VS2","parentBuildingCode":"V1","buildingName":"Student Village 1 House South 2","alternateBuildingNames":null,"GlobalID":"7c60f64a-0a4e-4d85-aea8-4fcf6015c163","SmallScale":"VS2","Identifier":"S"}},{"type":"Feature","id":36,"geometry":{"type":"Point","coordinates":[-80.5501780002915,43.4707150000876]},"properties":{"ObjectId":36,"buildingId":"20S3","buildingCode":"VS3","parentBuildingCode":"V1","buildingName":"Student Village 1 House South 3","alternateBuildingNames":null,"GlobalID":"1741e47a-8b84-42f2-afd2-a6c4b3b52e40","SmallScale":"VS3","Identifier":"S"}},{"type":"Feature","id":37,"geometry":{"type":"Point","coordinates":[-80.5504810002402,43.4706140002674]},"properties":{"ObjectId":37,"buildingId":"20S4","buildingCode":"VS4","parentBuildingCode":"V1","buildingName":"Student Village 1 House South 4","alternateBuildingNames":null,"GlobalID":"e7a4f091-d76b-472d-b281-485a632bd93b","SmallScale":"VS4","Identifier":"S"}},{"type":"Feature","id":38,"geometry":{"type":"Point","coordinates":[-80.5507330001353,43.4709039997623]},"properties":{"ObjectId":38,"buildingId":"20S5","buildingCode":"VS5","parentBuildingCode":"V1","buildingName":"Student Village 1 House South 5","alternateBuildingNames":null,"GlobalID":"c83c3f08-1ec6-41d6-8389-86eb31ae229c","SmallScale":"VS5","Identifier":"S"}},{"type":"Feature","id":39,"geometry":{"type":"Point","coordinates":[-80.5504779998672,43.4710869998155]},"properties":{"ObjectId":39,"buildingId":"20S6","buildingCode":"VS6","parentBuildingCode":"V1","buildingName":"Student Village 1 House South 6","alternateBuildingNames":null,"GlobalID":"f7fa067d-3b1e-493e-a638-5016a4bbfca7","SmallScale":"VS6","Identifier":"S"}},{"type":"Feature","id":40,"geometry":{"type":"Point","coordinates":[-80.5513099997204,43.4707299997108]},"properties":{"ObjectId":40,"buildingId":"20S7","buildingCode":"VS7","parentBuildingCode":"V1","buildingName":"Student Village 1 House South 7","alternateBuildingNames":null,"GlobalID":"cd6f75e6-087c-4659-a8b9-4b3d5edd7f00","SmallScale":"VS7","Identifier":"S"}},{"type":"Feature","id":41,"geometry":{"type":"Point","coordinates":[-80.5515540001179,43.4709189999905]},"properties":{"ObjectId":41,"buildingId":"20S8","buildingCode":"VS8","parentBuildingCode":"V1","buildingName":"Student Village 1 House South 8","alternateBuildingNames":null,"GlobalID":"5412c6f1-ef48-4fd3-bcb0-3c0d6076d29b","SmallScale":"VS8","Identifier":"S"}},{"type":"Feature","id":42,"geometry":{"type":"Point","coordinates":[-80.5506770000588,43.4715129999091]},"properties":{"ObjectId":42,"buildingId":"20W1","buildingCode":"VW1","parentBuildingCode":"V1","buildingName":"Student Village 1 House West 1","alternateBuildingNames":null,"GlobalID":"65160e55-e5c7-4cb2-ab33-a183dd375ded","SmallScale":"VW1","Identifier":"S"}},{"type":"Feature","id":43,"geometry":{"type":"Point","coordinates":[-80.5510629998482,43.4714569997621]},"properties":{"ObjectId":43,"buildingId":"20W2","buildingCode":"VW2","parentBuildingCode":"V1","buildingName":"Student Village 1 House West 2","alternateBuildingNames":null,"GlobalID":"a9630055-ce19-440d-b965-176cb077cd8f","SmallScale":"VW2","Identifier":"S"}},{"type":"Feature","id":44,"geometry":{"type":"Point","coordinates":[-80.5514310000942,43.4717250000885]},"properties":{"ObjectId":44,"buildingId":"20W3","buildingCode":"VW3","parentBuildingCode":"V1","buildingName":"Student Village 1 House West 3","alternateBuildingNames":null,"GlobalID":"45e49cf1-ad5f-47e0-9931-8a189d33678a","SmallScale":"VW3","Identifier":"S"}},{"type":"Feature","id":45,"geometry":{"type":"Point","coordinates":[-80.5511919997196,43.47190200001]},"properties":{"ObjectId":45,"buildingId":"20W4","buildingCode":"VW4","parentBuildingCode":"V1","buildingName":"Student Village 1 House West 4","alternateBuildingNames":null,"GlobalID":"c1bc011d-e5b9-4983-8a69-5999f3f0533f","SmallScale":"VW4","Identifier":"S"}},{"type":"Feature","id":46,"geometry":{"type":"Point","coordinates":[-80.5508970001668,43.4720310001124]},"properties":{"ObjectId":46,"buildingId":"20W5","buildingCode":"VW5","parentBuildingCode":"V1","buildingName":"Student Village 1 House West 5","alternateBuildingNames":null,"GlobalID":"b4288757-ce1d-4adb-8440-9f674a062ba8","SmallScale":"VW5","Identifier":"S"}},{"type":"Feature","id":47,"geometry":{"type":"Point","coordinates":[-80.5506469999216,43.4718300001819]},"properties":{"ObjectId":47,"buildingId":"20W6","buildingCode":"VW6","parentBuildingCode":"V1","buildingName":"Student Village 1 House West 6","alternateBuildingNames":null,"GlobalID":"ec46f960-0249-4aa9-8cc2-3c85a36d0c36","SmallScale":"VW6","Identifier":"S"}},{"type":"Feature","id":48,"geometry":{"type":"Point","coordinates":[-80.5527480003693,43.4705459998158]},"properties":{"ObjectId":48,"buildingId":"021","buildingCode":"TH","parentBuildingCode":null,"buildingName":"Tutors' Houses","alternateBuildingNames":null,"GlobalID":"265a1c16-a145-432b-afe9-6e6355c03312","SmallScale":"TH","Identifier":"M"}},{"type":"Feature","id":49,"geometry":{"type":"Point","coordinates":[-80.5461119396514,43.4705860102149]},"properties":{"ObjectId":49,"buildingId":"022","buildingCode":"HS","parentBuildingCode":null,"buildingName":"Health Services","alternateBuildingNames":null,"GlobalID":"91ad57b7-958e-4522-a1ea-5789c016a68c","SmallScale":"HS","Identifier":"M"}},{"type":"Feature","id":50,"geometry":{"type":"Point","coordinates":[-80.542751130171,43.4657953498582]},"properties":{"ObjectId":50,"buildingId":"023","buildingCode":"MHR","parentBuildingCode":null,"buildingName":"Minota Hagey Residence","alternateBuildingNames":null,"GlobalID":"87a0cdc8-fa74-42a7-8dfe-89367a1b7590","SmallScale":"MHR","Identifier":"M"}},{"type":"Feature","id":51,"geometry":{"type":"Point","coordinates":[-80.5416567899155,43.4679289100189]},"properties":{"ObjectId":51,"buildingId":"024","buildingCode":"HH","parentBuildingCode":null,"buildingName":"J.G. Hagey Hall of the Humanities","alternateBuildingNames":null,"GlobalID":"b567e3ea-be7c-495c-8e61-d1bbc76c179a","SmallScale":"HH","Identifier":"M"}},{"type":"Feature","id":53,"geometry":{"type":"Point","coordinates":[-80.5541236902769,43.4701558201085]},"properties":{"ObjectId":53,"buildingId":"25CC","buildingCode":"REV","parentBuildingCode":"REV","buildingName":"Ron Eydt Village Central Complex","alternateBuildingNames":null,"GlobalID":"a1037e01-c8b7-4a25-b439-16862554bad2","SmallScale":"REC","Identifier":"S"}},{"type":"Feature","id":54,"geometry":{"type":"Point","coordinates":[-80.5531200547122,43.4694583740034]},"properties":{"ObjectId":54,"buildingId":"25E","buildingCode":"VE","parentBuildingCode":"REV","buildingName":"Ron Eydt Village East","alternateBuildingNames":null,"GlobalID":"2d202064-61f7-45c7-be00-8b1ac1f26eba","SmallScale":"VE","Identifier":"S"}},{"type":"Feature","id":55,"geometry":{"type":"Point","coordinates":[-80.5534639998716,43.4693479997141]},"properties":{"ObjectId":55,"buildingId":"25EA","buildingCode":"VEA","parentBuildingCode":"REV","buildingName":"Ron Eydt Village East A","alternateBuildingNames":null,"GlobalID":"3907b6b9-e34f-4917-a06d-d547c9af0642","SmallScale":"VEA","Identifier":"S"}},{"type":"Feature","id":56,"geometry":{"type":"Point","coordinates":[-80.5534639998716,43.4693479997141]},"properties":{"ObjectId":56,"buildingId":"25EB","buildingCode":"VEB","parentBuildingCode":"REV","buildingName":"Ron Eydt Village East B","alternateBuildingNames":null,"GlobalID":"933fe219-197c-4507-8057-3d7ae8d4b709","SmallScale":"VEB","Identifier":"S"}},{"type":"Feature","id":57,"geometry":{"type":"Point","coordinates":[-80.5529890003938,43.4695469999134]},"properties":{"ObjectId":57,"buildingId":"25EC","buildingCode":"VEC","parentBuildingCode":"REV","buildingName":"Ron Eydt Village East C","alternateBuildingNames":null,"GlobalID":"ea5ef245-544e-40d3-b3db-ade361df9994","SmallScale":"VEC","Identifier":"S"}},{"type":"Feature","id":58,"geometry":{"type":"Point","coordinates":[-80.5529890003938,43.4695469999134]},"properties":{"ObjectId":58,"buildingId":"25ED","buildingCode":"VED","parentBuildingCode":"REV","buildingName":"Ron Eydt Village East D","alternateBuildingNames":null,"GlobalID":"3dadc283-29e6-4d0a-bdb5-a63f00a6bce7","SmallScale":"VED","Identifier":"S"}},{"type":"Feature","id":59,"geometry":{"type":"Point","coordinates":[-80.5529890003938,43.4695469999134]},"properties":{"ObjectId":59,"buildingId":"25EE","buildingCode":"VEE","parentBuildingCode":"REV","buildingName":"Ron Eydt Village East E","alternateBuildingNames":null,"GlobalID":"6d3d61e6-307d-4122-9107-dd18edd6dfed","SmallScale":"VEE","Identifier":"S"}},{"type":"Feature","id":61,"geometry":{"type":"Point","coordinates":[-80.5537007050506,43.4705835498225]},"properties":{"ObjectId":61,"buildingId":"25N","buildingCode":"VN","parentBuildingCode":"REV","buildingName":"Ron Eydt Village North","alternateBuildingNames":null,"GlobalID":"e27ca93e-ffcf-4df1-8e7b-4cb0447651b5","SmallScale":"VN","Identifier":"S"}},{"type":"Feature","id":62,"geometry":{"type":"Point","coordinates":[-80.5540000003471,43.4707769999839]},"properties":{"ObjectId":62,"buildingId":"25NA","buildingCode":"VNA","parentBuildingCode":"REV","buildingName":"Ron Eydt Village North A","alternateBuildingNames":null,"GlobalID":"a7253b58-5b7a-49f8-9283-4ada304574ad","SmallScale":"VNA","Identifier":"S"}},{"type":"Feature","id":63,"geometry":{"type":"Point","coordinates":[-80.5540000003471,43.4707769999839]},"properties":{"ObjectId":63,"buildingId":"25NB","buildingCode":"VNB","parentBuildingCode":"REV","buildingName":"Ron Eydt Village North B","alternateBuildingNames":null,"GlobalID":"c72a7739-e9f1-45d6-bda4-3bc7765d4bd1","SmallScale":"VNB","Identifier":"S"}},{"type":"Feature","id":64,"geometry":{"type":"Point","coordinates":[-80.5535390002147,43.4705259998218]},"properties":{"ObjectId":64,"buildingId":"25NC","buildingCode":"VNC","parentBuildingCode":"REV","buildingName":"Ron Eydt Village North C","alternateBuildingNames":null,"GlobalID":"b76731c6-766e-4632-a24a-7e9a70c09aa6","SmallScale":"VNC","Identifier":"S"}},{"type":"Feature","id":65,"geometry":{"type":"Point","coordinates":[-80.5535390002147,43.4705259998218]},"properties":{"ObjectId":65,"buildingId":"25ND","buildingCode":"VND","parentBuildingCode":"REV","buildingName":"Ron Eydt Village North D","alternateBuildingNames":null,"GlobalID":"88aa7a99-b08b-47da-9e06-6a274aa1e5c5","SmallScale":"VND","Identifier":"S"}},{"type":"Feature","id":66,"geometry":{"type":"Point","coordinates":[-80.5535390002147,43.4705259998218]},"properties":{"ObjectId":66,"buildingId":"25NE","buildingCode":"VNE","parentBuildingCode":"REV","buildingName":"Ron Eydt Village North E","alternateBuildingNames":null,"GlobalID":"7b8f860b-b521-49a0-b1f3-84544fce0a81","SmallScale":"VNE","Identifier":"S"}},{"type":"Feature","id":68,"geometry":{"type":"Point","coordinates":[-80.5543711464933,43.4694800954833]},"properties":{"ObjectId":68,"buildingId":"25S","buildingCode":"VS","parentBuildingCode":"REV","buildingName":"Ron Eydt Village South","alternateBuildingNames":null,"GlobalID":"c7f72ec0-06fe-4400-957c-6f5d8ac3d43b","SmallScale":"VS","Identifier":"S"}},{"type":"Feature","id":69,"geometry":{"type":"Point","coordinates":[-80.5540859996625,43.4693850002234]},"properties":{"ObjectId":69,"buildingId":"25SA","buildingCode":"VSA","parentBuildingCode":"REV","buildingName":"Ron Eydt Village South A","alternateBuildingNames":null,"GlobalID":"68025032-7ad4-42db-aded-3fb94f11c484","SmallScale":"VSA","Identifier":"S"}},{"type":"Feature","id":70,"geometry":{"type":"Point","coordinates":[-80.5540859996625,43.4693850002234]},"properties":{"ObjectId":70,"buildingId":"25SB","buildingCode":"VSB","parentBuildingCode":"REV","buildingName":"Ron Eydt Village South B","alternateBuildingNames":null,"GlobalID":"dfb6d075-2c99-421b-b56d-8418eb0dc86a","SmallScale":"VSB","Identifier":"S"}},{"type":"Feature","id":71,"geometry":{"type":"Point","coordinates":[-80.5547159998494,43.4696790000641]},"properties":{"ObjectId":71,"buildingId":"25SC","buildingCode":"VSC","parentBuildingCode":"REV","buildingName":"Ron Eydt Village South C","alternateBuildingNames":null,"GlobalID":"4a709cf7-5142-41bf-b0c7-822bec3606c5","SmallScale":"VSC","Identifier":"S"}},{"type":"Feature","id":72,"geometry":{"type":"Point","coordinates":[-80.5547159998494,43.4696790000641]},"properties":{"ObjectId":72,"buildingId":"25SD","buildingCode":"VSD","parentBuildingCode":"REV","buildingName":"Ron Eydt Village South D","alternateBuildingNames":null,"GlobalID":"db66bcab-b70b-43b8-a5e2-61cf4f45c21d","SmallScale":"VSD","Identifier":"S"}},{"type":"Feature","id":73,"geometry":{"type":"Point","coordinates":[-80.5547159998494,43.4696790000641]},"properties":{"ObjectId":73,"buildingId":"25SE","buildingCode":"VSE","parentBuildingCode":"REV","buildingName":"Ron Eydt Village South E","alternateBuildingNames":null,"GlobalID":"0199adb3-9443-49ca-824c-11c109f6749d","SmallScale":"VSE","Identifier":"S"}},{"type":"Feature","id":75,"geometry":{"type":"Point","coordinates":[-80.5548141165396,43.4707573201642]},"properties":{"ObjectId":75,"buildingId":"25W","buildingCode":"VW","parentBuildingCode":"REV","buildingName":"Ron Eydt Village West","alternateBuildingNames":null,"GlobalID":"c39e4120-efb4-4ebd-87af-e3edf602537e","SmallScale":"VW","Identifier":"S"}},{"type":"Feature","id":76,"geometry":{"type":"Point","coordinates":[-80.5546089997192,43.4708059997874]},"properties":{"ObjectId":76,"buildingId":"25WA","buildingCode":"VWA","parentBuildingCode":"REV","buildingName":"Ron Eydt Village West A","alternateBuildingNames":null,"GlobalID":"104c2e53-47f9-449a-b34b-f87d806ce214","SmallScale":"VWA","Identifier":"S"}},{"type":"Feature","id":77,"geometry":{"type":"Point","coordinates":[-80.5546089997192,43.4708059997874]},"properties":{"ObjectId":77,"buildingId":"25WB","buildingCode":"VWB","parentBuildingCode":"REV","buildingName":"Ron Eydt Village West B","alternateBuildingNames":null,"GlobalID":"ac27f90b-ab36-47bd-99d3-caa9f56dd74b","SmallScale":"VWB","Identifier":"S"}},{"type":"Feature","id":78,"geometry":{"type":"Point","coordinates":[-80.5550620003541,43.470578999987]},"properties":{"ObjectId":78,"buildingId":"25WC","buildingCode":"VWC","parentBuildingCode":"REV","buildingName":"Ron Eydt Village West C","alternateBuildingNames":null,"GlobalID":"e0f72fb1-552c-4769-8f96-ea16b2ec6ff2","SmallScale":"VWC","Identifier":"S"}},{"type":"Feature","id":79,"geometry":{"type":"Point","coordinates":[-80.5550620003541,43.470578999987]},"properties":{"ObjectId":79,"buildingId":"25WD","buildingCode":"VWD","parentBuildingCode":"REV","buildingName":"Ron Eydt Village West D","alternateBuildingNames":null,"GlobalID":"b76bdb7f-209e-4260-b91f-82e68d7e8fbb","SmallScale":"VWD","Identifier":"S"}},{"type":"Feature","id":80,"geometry":{"type":"Point","coordinates":[-80.5550620003541,43.470578999987]},"properties":{"ObjectId":80,"buildingId":"25WE","buildingCode":"VWE","parentBuildingCode":"REV","buildingName":"Ron Eydt Village West E","alternateBuildingNames":null,"GlobalID":"31933709-4ae0-4c06-b7a9-0b8a51614e09","SmallScale":"VWE","Identifier":"S"}},{"type":"Feature","id":82,"geometry":{"type":"Point","coordinates":[-80.5352499521081,43.4708351477232]},"properties":{"ObjectId":82,"buildingId":"UWP(26)","buildingCode":"UWP","parentBuildingCode":null,"buildingName":"University of Waterloo Place","alternateBuildingNames":null,"GlobalID":"7571cf83-8c3b-49af-bdef-2d7ea4ece673","SmallScale":"","Identifier":"L"}},{"type":"Feature","id":83,"geometry":{"type":"Point","coordinates":[-80.5351642444973,43.4707256053231]},"properties":{"ObjectId":83,"buildingId":"26CC","buildingCode":"UCC","parentBuildingCode":"UWP","buildingName":"UW Place Community Centre","alternateBuildingNames":null,"GlobalID":"e33a3057-6bd9-44dd-9ca7-7212731fbc92","SmallScale":"UCC","Identifier":"S"}},{"type":"Feature","id":84,"geometry":{"type":"Point","coordinates":[-80.5335400001821,43.4706399999597]},"properties":{"ObjectId":84,"buildingId":"26EC","buildingCode":"UEC","parentBuildingCode":"UWP","buildingName":"UW Place Woolwich Court","alternateBuildingNames":null,"GlobalID":"4883dde7-c653-4f32-ac0f-a81b4eb01a7e","SmallScale":"UEC","Identifier":"S"}},{"type":"Feature","id":85,"geometry":{"type":"Point","coordinates":[-80.534703877166,43.4707428810202]},"properties":{"ObjectId":85,"buildingId":"26ET","buildingCode":"UET","parentBuildingCode":"UWP","buildingName":"UW Place Beck Hall","alternateBuildingNames":null,"GlobalID":"864f0f82-6a47-4fd1-ac92-f55eae997da4","SmallScale":"UET","Identifier":"S"}},{"type":"Feature","id":86,"geometry":{"type":"Point","coordinates":[-80.5356399999066,43.4715499997449]},"properties":{"ObjectId":86,"buildingId":"26NC","buildingCode":"UNC","parentBuildingCode":"UWP","buildingName":"UW Place Wellesley Court","alternateBuildingNames":null,"GlobalID":"a7749008-9b63-4abe-a625-3217c2c9d436","SmallScale":"UNC","Identifier":"S"}},{"type":"Feature","id":87,"geometry":{"type":"Point","coordinates":[-80.5349200002064,43.4700699997277]},"properties":{"ObjectId":87,"buildingId":"26SC","buildingCode":"USC","parentBuildingCode":"UWP","buildingName":"UW Place Waterloo Court","alternateBuildingNames":null,"GlobalID":"1e8500c4-e9e8-459a-9ba2-4f34a1cd254d","SmallScale":"USC","Identifier":"S"}},{"type":"Feature","id":88,"geometry":{"type":"Point","coordinates":[-80.5366600000808,43.4711099997901]},"properties":{"ObjectId":88,"buildingId":"26WC","buildingCode":"UWC","parentBuildingCode":"UWP","buildingName":"UW Place Wilmot Court","alternateBuildingNames":null,"GlobalID":"c7376f1a-dd63-4e66-bf49-281c650ac91d","SmallScale":"UWC","Identifier":"S"}},{"type":"Feature","id":89,"geometry":{"type":"Point","coordinates":[-80.5355442771002,43.4705567459241]},"properties":{"ObjectId":89,"buildingId":"26WT","buildingCode":"UWT","parentBuildingCode":"UWP","buildingName":"UW Place Eby Hall","alternateBuildingNames":null,"GlobalID":"c846c580-b4da-42d2-ad18-179ddde35606","SmallScale":"UWT","Identifier":"S"}},{"type":"Feature","id":90,"geometry":{"type":"Point","coordinates":[-80.54737800006,43.4723339997855]},"properties":{"ObjectId":90,"buildingId":"027","buildingCode":"UC","parentBuildingCode":null,"buildingName":"University Club","alternateBuildingNames":null,"GlobalID":"51c5e9f7-8336-4717-9d3e-e7d67dd9c726","SmallScale":"UC","Identifier":"M"}},{"type":"Feature","id":91,"geometry":{"type":"Point","coordinates":[-80.5429048696454,43.4720703002436]},"properties":{"ObjectId":91,"buildingId":"028","buildingCode":"C2","parentBuildingCode":null,"buildingName":"Chemistry 2","alternateBuildingNames":null,"GlobalID":"6d645a0f-b283-4561-853f-70a0564ea6f8","SmallScale":"C2","Identifier":"M"}},{"type":"Feature","id":92,"geometry":{"type":"Point","coordinates":[-80.539339360163,43.4709500200518]},"properties":{"ObjectId":92,"buildingId":"029","buildingCode":"CPH","parentBuildingCode":null,"buildingName":"Carl A. Pollock Hall","alternateBuildingNames":null,"GlobalID":"132dc2c5-6acb-4cd2-a1dd-b5351d9288da","SmallScale":"CPH","Identifier":"M"}},{"type":"Feature","id":93,"geometry":{"type":"Point","coordinates":[-80.5424609698427,43.4672630502022]},"properties":{"ObjectId":93,"buildingId":"030","buildingCode":"PAS","parentBuildingCode":null,"buildingName":"Psychology, Anthropology, Sociology","alternateBuildingNames":null,"GlobalID":"6d7fc65d-44b3-41c7-a2c1-d2edfc88552a","SmallScale":"PAS","Identifier":"M"}},{"type":"Feature","id":94,"geometry":{"type":"Point","coordinates":[-80.5436308898547,43.4696263498548]},"properties":{"ObjectId":94,"buildingId":"031","buildingCode":"NH","parentBuildingCode":null,"buildingName":"Ira G. Needles Hall","alternateBuildingNames":null,"GlobalID":"163a525e-7b5d-47cc-b842-a7741698a3e5","SmallScale":"NH","Identifier":"M"}},{"type":"Feature","id":95,"geometry":{"type":"Point","coordinates":[-80.5451758403281,43.4738658601473]},"properties":{"ObjectId":95,"buildingId":"032","buildingCode":"BMH","parentBuildingCode":"BMH","buildingName":"B.C. Matthews Hall","alternateBuildingNames":null,"GlobalID":"9513719c-ebf3-42e5-b92a-0ba00dc0bd1f","SmallScale":"BMH","Identifier":"S"}},{"type":"Feature","id":96,"geometry":{"type":"Point","coordinates":[-80.5455298996192,43.4759251698687]},"properties":{"ObjectId":96,"buildingId":"033","buildingCode":"OPT","parentBuildingCode":null,"buildingName":"Optometry","alternateBuildingNames":null,"GlobalID":"dc4a0678-bad2-4d42-a981-962f992d04eb","SmallScale":"OPT","Identifier":"M"}},{"type":"Feature","id":97,"geometry":{"type":"Point","coordinates":[-80.5432399996369,43.4678600003197]},"properties":{"ObjectId":97,"buildingId":"034","buildingCode":"EV2","parentBuildingCode":null,"buildingName":"Environment 2","alternateBuildingNames":null,"GlobalID":"5b1c3e78-cbf0-467f-b40a-0bd384ac7996","SmallScale":"EV2","Identifier":"M"}},{"type":"Feature","id":98,"geometry":{"type":"Point","coordinates":[-80.5486412604198,43.4732468900291]},"properties":{"ObjectId":98,"buildingId":"035","buildingCode":"FED","parentBuildingCode":null,"buildingName":"Federation Hall","alternateBuildingNames":null,"GlobalID":"bfb8a7d5-064f-4760-aaec-35cb79a429e7","SmallScale":"FED","Identifier":"M"}},{"type":"Feature","id":99,"geometry":{"type":"Point","coordinates":[-80.5382289255582,43.4736867880035]},"properties":{"ObjectId":99,"buildingId":"036","buildingCode":"ECH","parentBuildingCode":null,"buildingName":"East Campus Hall","alternateBuildingNames":null,"GlobalID":"7a368bbf-6887-4747-b573-e9fff46699ab","SmallScale":"ECH","Identifier":"M"}},{"type":"Feature","id":100,"geometry":{"type":"Point","coordinates":[-80.5421640002845,43.4727610002443]},"properties":{"ObjectId":100,"buildingId":"037","buildingCode":"DC","parentBuildingCode":null,"buildingName":"William G. Davis Computer Research Centre","alternateBuildingNames":null,"GlobalID":"451a9e7c-9d83-48c3-b6b4-ac090b915b40","SmallScale":"DC","Identifier":"M"}},{"type":"Feature","id":101,"geometry":{"type":"Point","coordinates":[-80.5420644804258,43.4714950401004]},"properties":{"ObjectId":101,"buildingId":"039","buildingCode":"EIT","parentBuildingCode":null,"buildingName":"Centre for Environmental and Information Technology","alternateBuildingNames":null,"GlobalID":"15948ea7-54de-4d59-a5db-c863dea6f1ec","SmallScale":"EIT","Identifier":"M"}},{"type":"Feature","id":102,"geometry":{"type":"Point","coordinates":[-80.5457150001784,43.4833540001618]},"properties":{"ObjectId":102,"buildingId":"040","buildingCode":"BAU","parentBuildingCode":null,"buildingName":"Bauer Warehouse","alternateBuildingNames":null,"GlobalID":"a9fb7b20-3407-4b85-ba4a-5b26afa49d57","SmallScale":"BAU","Identifier":"M"}},{"type":"Feature","id":103,"geometry":{"type":"Point","coordinates":[-80.5594049999183,43.4732180002647]},"properties":{"ObjectId":103,"buildingId":"041","buildingCode":"COG","parentBuildingCode":null,"buildingName":"Columbia Greenhouses","alternateBuildingNames":null,"GlobalID":"4fcf7843-1791-4a5d-9aba-10725629f8a6","SmallScale":"COG","Identifier":"M"}},{"type":"Feature","id":104,"geometry":{"type":"Point","coordinates":[-80.5485232397578,43.4753568198505]},"properties":{"ObjectId":104,"buildingId":"042","buildingCode":"CIF","parentBuildingCode":null,"buildingName":"Columbia Icefield","alternateBuildingNames":null,"GlobalID":"f34b681b-1120-4ce3-9977-9726538d9e0e","SmallScale":"CIF","Identifier":"M"}},{"type":"Feature","id":105,"geometry":{"type":"Point","coordinates":[-80.5625419429416,43.4707082356526]},"properties":{"ObjectId":105,"buildingId":"CLVS(43)","buildingCode":"CLV","parentBuildingCode":null,"buildingName":"Columbia Lake Village","alternateBuildingNames":null,"GlobalID":"8c818175-45f0-44d4-ab9a-a4013a6f8433","SmallScale":"","Identifier":"L"}},{"type":"Feature","id":106,"geometry":{"type":"Point","coordinates":[-80.5597000003694,43.4704559997907]},"properties":{"ObjectId":106,"buildingId":"43A","buildingCode":"CTA","parentBuildingCode":"CLV","buildingName":"Columbia Lake Village South Block A","alternateBuildingNames":null,"GlobalID":"32f78ec3-1f91-4b46-9bf3-cf066cfaddd4","SmallScale":"CTA","Identifier":"S"}},{"type":"Feature","id":107,"geometry":{"type":"Point","coordinates":[-80.560116000296,43.4707539998826]},"properties":{"ObjectId":107,"buildingId":"43B","buildingCode":"CTB","parentBuildingCode":"CLV","buildingName":"Columbia Lake Village South Block B","alternateBuildingNames":null,"GlobalID":"f5d71a59-fb06-4af0-9dc8-7246f9817238","SmallScale":"CTB","Identifier":"S"}},{"type":"Feature","id":108,"geometry":{"type":"Point","coordinates":[-80.5596380004451,43.470880000302]},"properties":{"ObjectId":108,"buildingId":"43C","buildingCode":"CTC","parentBuildingCode":"CLV","buildingName":"Columbia Lake Village South Block C","alternateBuildingNames":null,"GlobalID":"49aa7e4b-8bd8-404e-9fd9-8d6d6080391a","SmallScale":"CTC","Identifier":"S"}},{"type":"Feature","id":109,"geometry":{"type":"Point","coordinates":[-80.5609339999055,43.4700709998003]},"properties":{"ObjectId":109,"buildingId":"43D","buildingCode":"CTD","parentBuildingCode":"CLV","buildingName":"Columbia Lake Village South Block D","alternateBuildingNames":null,"GlobalID":"25f5e38b-85f4-4a97-a2d2-e7841cb8f75a","SmallScale":"CTD","Identifier":"S"}},{"type":"Feature","id":110,"geometry":{"type":"Point","coordinates":[-80.561398000411,43.4703840001957]},"properties":{"ObjectId":110,"buildingId":"43E","buildingCode":"CTE","parentBuildingCode":"CLV","buildingName":"Columbia Lake Village South Block E","alternateBuildingNames":null,"GlobalID":"f5bffd54-ca0e-40f8-9a27-3e9e8b8df0cf","SmallScale":"CTE","Identifier":"S"}},{"type":"Feature","id":111,"geometry":{"type":"Point","coordinates":[-80.561178000303,43.4707050001194]},"properties":{"ObjectId":111,"buildingId":"43F","buildingCode":"CTF","parentBuildingCode":"CLV","buildingName":"Columbia Lake Village South Block F","alternateBuildingNames":null,"GlobalID":"7b56d415-295d-4003-bf7b-14044e47661a","SmallScale":"CTF","Identifier":"S"}},{"type":"Feature","id":112,"geometry":{"type":"Point","coordinates":[-80.5608319997982,43.4703999999682]},"properties":{"ObjectId":112,"buildingId":"43G","buildingCode":"CTG","parentBuildingCode":"CLV","buildingName":"Columbia Lake Village South Block G","alternateBuildingNames":null,"GlobalID":"c4dac65a-088d-4106-87c5-149e2217f9db","SmallScale":"CTG","Identifier":"S"}},{"type":"Feature","id":113,"geometry":{"type":"Point","coordinates":[-80.5619420003841,43.4697400002932]},"properties":{"ObjectId":113,"buildingId":"43H","buildingCode":"CTH","parentBuildingCode":"CLV","buildingName":"Columbia Lake Village South Block H","alternateBuildingNames":null,"GlobalID":"bab654a7-c7a9-4b73-b622-32864e5cca8f","SmallScale":"CTH","Identifier":"S"}},{"type":"Feature","id":114,"geometry":{"type":"Point","coordinates":[-80.5625859999164,43.4702009999697]},"properties":{"ObjectId":114,"buildingId":"43J","buildingCode":"CTJ","parentBuildingCode":"CLV","buildingName":"Columbia Lake Village South Block J","alternateBuildingNames":null,"GlobalID":"0ecd32cf-fc16-43df-afdc-f0c23ea458a9","SmallScale":"CTJ","Identifier":"S"}},{"type":"Feature","id":115,"geometry":{"type":"Point","coordinates":[-80.5621139999133,43.4701519997582]},"properties":{"ObjectId":115,"buildingId":"43K","buildingCode":"CTK","parentBuildingCode":"CLV","buildingName":"Columbia Lake Village South Block K","alternateBuildingNames":null,"GlobalID":"29dc2f59-537d-4cb1-b6e9-12430477d1bf","SmallScale":"CTK","Identifier":"S"}},{"type":"Feature","id":116,"geometry":{"type":"Point","coordinates":[-80.5632479998903,43.4691749998341]},"properties":{"ObjectId":116,"buildingId":"43L","buildingCode":"CTL","parentBuildingCode":"CLV","buildingName":"Columbia Lake Village South Block L","alternateBuildingNames":null,"GlobalID":"298a9c2d-9906-45f3-99cf-cf8158c8f682","SmallScale":"CTL","Identifier":"S"}},{"type":"Feature","id":117,"geometry":{"type":"Point","coordinates":[-80.5637099998476,43.4693310002303]},"properties":{"ObjectId":117,"buildingId":"43M","buildingCode":"CTM","parentBuildingCode":"CLV","buildingName":"Columbia Lake Village South Block M","alternateBuildingNames":null,"GlobalID":"319c79f0-7a65-4186-b329-18ab8f9b60fa","SmallScale":"CTM","Identifier":"S"}},{"type":"Feature","id":118,"geometry":{"type":"Point","coordinates":[-80.5632560002862,43.4695980001243]},"properties":{"ObjectId":118,"buildingId":"43N","buildingCode":"CTN","parentBuildingCode":"CLV","buildingName":"Columbia Lake Village South Block N","alternateBuildingNames":null,"GlobalID":"1982ccbc-bef3-4404-ae6b-aef16e8795fd","SmallScale":"CTN","Identifier":"S"}},{"type":"Feature","id":119,"geometry":{"type":"Point","coordinates":[-80.5628418059733,43.4697531955851]},"properties":{"ObjectId":119,"buildingId":"43P","buildingCode":"CTP","parentBuildingCode":"CLV","buildingName":"Columbia Lake Village South Block P","alternateBuildingNames":null,"GlobalID":"3ad89372-b6ae-42d9-907e-6ed2770558f3","SmallScale":"CTP","Identifier":"S"}},{"type":"Feature","id":120,"geometry":{"type":"Point","coordinates":[-80.5625083998489,43.4708187997772]},"properties":{"ObjectId":120,"buildingId":"43Q","buildingCode":"CTQ","parentBuildingCode":"CLV","buildingName":"Columbia Lake Village South Laundry","alternateBuildingNames":null,"GlobalID":"5434a8f0-771e-4844-a627-2b3fffc668a2","SmallScale":"CTQ","Identifier":"S"}},{"type":"Feature","id":121,"geometry":{"type":"Point","coordinates":[-80.552519300274,43.4711232329579]},"properties":{"ObjectId":121,"buildingId":"44","buildingCode":"MKV","parentBuildingCode":"MKV","buildingName":"William Lyon Mackenzie King Village","alternateBuildingNames":null,"GlobalID":"7f2f91c3-10a6-4d54-a370-b6b343e802cb","SmallScale":"MKV","Identifier":"S"}},{"type":"Feature","id":122,"geometry":{"type":"Point","coordinates":[-80.5524729757552,43.47159698569]},"properties":{"ObjectId":122,"buildingId":"44A","buildingCode":"MKV","parentBuildingCode":null,"buildingName":"William Lyon Mackenzie King Village","alternateBuildingNames":null,"GlobalID":"e2c864d0-8ff1-406e-8f67-8753b4e2a86f","SmallScale":"","Identifier":"L"}},{"type":"Feature","id":123,"geometry":{"type":"Point","coordinates":[-80.5521097948407,43.4714403307671]},"properties":{"ObjectId":123,"buildingId":"44E","buildingCode":"MKE","parentBuildingCode":"MKV","buildingName":"William Lyon Mackenzie King Village East","alternateBuildingNames":null,"GlobalID":"d44f334c-a85f-42ed-86b5-d0e02b76cfd9","SmallScale":"MKE","Identifier":"S"}},{"type":"Feature","id":124,"geometry":{"type":"Point","coordinates":[-80.5531096445212,43.4713662705417]},"properties":{"ObjectId":124,"buildingId":"44W","buildingCode":"MKW","parentBuildingCode":"MKV","buildingName":"William Lyon Mackenzie King Village West","alternateBuildingNames":null,"GlobalID":"887dd60d-92f6-4398-ae63-bb2ef29bf253","SmallScale":"MKW","Identifier":"S"}},{"type":"Feature","id":125,"geometry":{"type":"Point","coordinates":[-80.5412835003891,43.4690473496894]},"properties":{"ObjectId":125,"buildingId":"045","buildingCode":"TC","parentBuildingCode":null,"buildingName":"William M. Tatham Centre for Co-operative and Experiential Education","alternateBuildingNames":null,"GlobalID":"0322f50c-b55d-4312-ac95-0ad79c142e4a","SmallScale":"TC","Identifier":"M"}},{"type":"Feature","id":126,"geometry":{"type":"Point","coordinates":[-80.3169200001429,43.3585720002282]},"properties":{"ObjectId":126,"buildingId":"047","buildingCode":"ARC","parentBuildingCode":null,"buildingName":"School of Architecture","alternateBuildingNames":null,"GlobalID":"01f452b8-aa11-4b4f-a6cd-addd249d890d","SmallScale":"ARC","Identifier":"M"}},{"type":"Feature","id":127,"geometry":{"type":"Point","coordinates":[-80.5444784700882,43.4736245000656]},"properties":{"ObjectId":127,"buildingId":"048","buildingCode":"ERC","parentBuildingCode":null,"buildingName":"Energy Research Centre","alternateBuildingNames":null,"GlobalID":"cc690a5a-8de1-4102-94bb-33aface18401","SmallScale":"ERC","Identifier":"M"}},{"type":"Feature","id":128,"geometry":{"type":"Point","coordinates":[-80.4990200003814,43.4528469997375]},"properties":{"ObjectId":128,"buildingId":"049","buildingCode":"PHR","parentBuildingCode":null,"buildingName":"Pharmacy","alternateBuildingNames":null,"GlobalID":"a7476211-7df8-4d74-b3ae-6f3d5d31c79f","SmallScale":"PHR","Identifier":"M"}},{"type":"Feature","id":129,"geometry":{"type":"Point","coordinates":[-80.544192450095,43.4712483997359]},"properties":{"ObjectId":129,"buildingId":"050","buildingCode":"QNC","parentBuildingCode":null,"buildingName":"Mike & Ophelia Lazaridis Quantum-Nano Centre","alternateBuildingNames":null,"GlobalID":"2f04b3de-0f6f-4fd1-a425-b1324473cafa","SmallScale":"QNC","Identifier":"M"}},{"type":"Feature","id":130,"geometry":{"type":"Point","coordinates":[-80.554899891281,43.4787777188659]},"properties":{"ObjectId":130,"buildingId":"051","buildingCode":"RAC","parentBuildingCode":null,"buildingName":"Research Advancement Centre","alternateBuildingNames":null,"GlobalID":"95685f47-9a40-4e48-895f-374b8584738f","SmallScale":"RAC","Identifier":"M"}},{"type":"Feature","id":131,"geometry":{"type":"Point","coordinates":[-80.499207999804,43.4523110000548]},"properties":{"ObjectId":131,"buildingId":"052","buildingCode":"IHB","parentBuildingCode":null,"buildingName":"Integrated Health Building","alternateBuildingNames":null,"GlobalID":"9677a255-f342-4bf7-b29f-deac4713a0e5","SmallScale":"IHB","Identifier":"M"}},{"type":"Feature","id":132,"geometry":{"type":"Point","coordinates":[-80.5402466737218,43.4731241873685]},"properties":{"ObjectId":132,"buildingId":"053","buildingCode":"E5","parentBuildingCode":null,"buildingName":"Engineering 5","alternateBuildingNames":null,"GlobalID":"255cabd8-d7fd-4a09-9152-095a5ca38f3d","SmallScale":"E5","Identifier":"M"}},{"type":"Feature","id":133,"geometry":{"type":"Point","coordinates":[-80.5433800002773,43.4706399999597]},"properties":{"ObjectId":133,"buildingId":"054","buildingCode":"STC","parentBuildingCode":null,"buildingName":"Science Teaching Complex","alternateBuildingNames":null,"GlobalID":"d594c2ca-5246-4f01-be54-9f343e0d2c7a","SmallScale":"STC","Identifier":"M"}},{"type":"Feature","id":134,"geometry":{"type":"Point","coordinates":[-80.9821000002699,43.3678299998363]},"properties":{"ObjectId":134,"buildingId":"055","buildingCode":"DMS","parentBuildingCode":null,"buildingName":"Digital Media Stratford","alternateBuildingNames":null,"GlobalID":"dd39fc15-e07a-4024-8f24-d2c0fda834e7","SmallScale":"DMS","Identifier":"M"}},{"type":"Feature","id":135,"geometry":{"type":"Point","coordinates":[-80.5440498299672,43.473204250307]},"properties":{"ObjectId":135,"buildingId":"056","buildingCode":"M3","parentBuildingCode":null,"buildingName":"Mathematics 3","alternateBuildingNames":null,"GlobalID":"59f9dd3e-73ea-46bd-9e9d-fc8c3b135e3f","SmallScale":"M3","Identifier":"M"}},{"type":"Feature","id":136,"geometry":{"type":"Point","coordinates":[-80.5433760000793,43.468159000276]},"properties":{"ObjectId":136,"buildingId":"057","buildingCode":"EV3","parentBuildingCode":null,"buildingName":"Environment 3","alternateBuildingNames":null,"GlobalID":"6f81d610-2e10-49f4-95d7-fd6d102378b3","SmallScale":"EV3","Identifier":"M"}},{"type":"Feature","id":137,"geometry":{"type":"Point","coordinates":[-80.5555900815429,43.4783102877541]},"properties":{"ObjectId":137,"buildingId":"058","buildingCode":"RA2","parentBuildingCode":null,"buildingName":"Research Advancement Centre 2","alternateBuildingNames":null,"GlobalID":"3581bf45-a707-4e78-b661-0fc926bb6745","SmallScale":"RA2","Identifier":"M"}},{"type":"Feature","id":139,"geometry":{"type":"Point","coordinates":[-80.5386228018447,43.4731546436276]},"properties":{"ObjectId":139,"buildingId":"060","buildingCode":"E6","parentBuildingCode":null,"buildingName":"Engineering 6","alternateBuildingNames":null,"GlobalID":"326b32ae-f2ea-4b9b-9ea9-e75475ecaaa3","SmallScale":"E6","Identifier":"M"}},{"type":"Feature","id":140,"geometry":{"type":"Point","coordinates":[-80.5483924746968,43.4791405420877]},"properties":{"ObjectId":140,"buildingId":"061","buildingCode":"TJB","parentBuildingCode":null,"buildingName":"Toby Jenkins Applied Health Research Building","alternateBuildingNames":null,"GlobalID":"d70fd794-e2b0-4f75-918a-ab98ba70f13a","SmallScale":"TJB","Identifier":"M"}},{"type":"Feature","id":141,"geometry":{"type":"Point","coordinates":[-80.5400424598578,43.4761264501735]},"properties":{"ObjectId":141,"buildingId":"062","buildingCode":"EC1","parentBuildingCode":null,"buildingName":"East Campus 1","alternateBuildingNames":null,"GlobalID":"899bc3c2-0cfd-4258-9be7-b0f5cab1f4db","SmallScale":"EC1","Identifier":"M"}},{"type":"Feature","id":142,"geometry":{"type":"Point","coordinates":[-80.541348339888,43.4745652501726]},"properties":{"ObjectId":142,"buildingId":"063","buildingCode":"EC2","parentBuildingCode":null,"buildingName":"East Campus 2","alternateBuildingNames":null,"GlobalID":"6af2c530-5d4f-4a45-b143-03a8d4f81d5e","SmallScale":"EC2","Identifier":"M"}},{"type":"Feature","id":143,"geometry":{"type":"Point","coordinates":[-80.5421940803718,43.4756365497216]},"properties":{"ObjectId":143,"buildingId":"064","buildingCode":"EC3","parentBuildingCode":null,"buildingName":"East Campus 3","alternateBuildingNames":null,"GlobalID":"8b69369e-8d38-4c6c-9ae1-f0397b6b7c0e","SmallScale":"EC3","Identifier":"M"}},{"type":"Feature","id":144,"geometry":{"type":"Point","coordinates":[-80.5397332658959,43.4748628045082]},"properties":{"ObjectId":144,"buildingId":"065","buildingCode":"EC4","parentBuildingCode":null,"buildingName":"East Campus 4","alternateBuildingNames":null,"GlobalID":"f286605b-8d67-46a4-a8eb-c2b4629f410b","SmallScale":"EC4","Identifier":"M"}},{"type":"Feature","id":145,"geometry":{"type":"Point","coordinates":[-80.5406120420536,43.4754352593105]},"properties":{"ObjectId":145,"buildingId":"066","buildingCode":"EC5","parentBuildingCode":null,"buildingName":"East Campus 5","alternateBuildingNames":null,"GlobalID":"66eae628-ae4b-4a34-95c6-c02ea9cc3b44","SmallScale":"EC5","Identifier":"M"}},{"type":"Feature","id":147,"geometry":{"type":"Point","coordinates":[-80.5359268795875,43.4702626001048]},"properties":{"ObjectId":147,"buildingId":"68","buildingCode":"CMH","parentBuildingCode":null,"buildingName":"Claudette Millar Hall","alternateBuildingNames":null,"GlobalID":"529d6dc5-42e8-4e2d-b5a6-e9896f284a8d","SmallScale":"CMH","Identifier":"M"}},{"type":"Feature","id":158,"geometry":{"type":"Point","coordinates":[-80.5409180603416,43.4697329501988]},"properties":{"ObjectId":158,"buildingId":"104","buildingCode":"GH","parentBuildingCode":null,"buildingName":"Graduate House","alternateBuildingNames":"Grad House","GlobalID":"6bd03402-4acb-4ed9-8004-a2948f922e95","SmallScale":"GH","Identifier":"M"}},{"type":"Feature","id":160,"geometry":{"type":"Point","coordinates":[-80.5523480003363,43.4755710001174]},"properties":{"ObjectId":160,"buildingId":"112","buildingCode":"BRH","parentBuildingCode":null,"buildingName":"Brubacher House","alternateBuildingNames":null,"GlobalID":"d0a01868-18d1-4792-9c56-bd7d26269839","SmallScale":"BRH","Identifier":"M"}},{"type":"Feature","id":176,"geometry":{"type":"Point","coordinates":[12.4709249998104,41.8896150000961]},"properties":{"ObjectId":176,"buildingId":"140","buildingCode":"AAR","parentBuildingCode":null,"buildingName":"Architecture Annex Rome","alternateBuildingNames":null,"GlobalID":"cd071f10-096d-45e8-9add-73b29d2bcab1","SmallScale":"AAR","Identifier":"M"}},{"type":"Feature","id":178,"geometry":{"type":"Point","coordinates":[-80.5498912861554,43.4745761367205]},"properties":{"ObjectId":178,"buildingId":"145","buildingCode":"WFF","parentBuildingCode":null,"buildingName":"Warrior Football Field","alternateBuildingNames":null,"GlobalID":"99ecd355-8f64-46e2-aa78-6f6e284e0f05","SmallScale":"WFF","Identifier":"M"}},{"type":"Feature","id":184,"geometry":{"type":"Point","coordinates":[-80.979382982325,43.3664183335094]},"properties":{"ObjectId":184,"buildingId":"170","buildingCode":"DMS2","parentBuildingCode":null,"buildingName":"The Bradshaw","alternateBuildingNames":null,"GlobalID":"9e929e68-099d-4b53-a4bb-02c2b8214317","SmallScale":"DMS2","Identifier":"M"}},{"type":"Feature","id":185,"geometry":{"type":"Point","coordinates":[-80.5449125414233,43.4770539343917]},"properties":{"ObjectId":185,"buildingId":"153","buildingCode":"BSC","parentBuildingCode":null,"buildingName":"Bright Starts Co-operative Early Learning Centre","alternateBuildingNames":null,"GlobalID":"ec4546b7-75a4-421d-a991-e7ddaebe3ac2","SmallScale":"BSC","Identifier":"M"}},{"type":"Feature","id":191,"geometry":{"type":"Point","coordinates":[-80.5013155201417,43.4517576792817]},"properties":{"ObjectId":191,"buildingId":"139","buildingCode":"IA","parentBuildingCode":null,"buildingName":"Innovation Arena","alternateBuildingNames":null,"GlobalID":"be2a971f-d2b3-4542-8129-a73a967e0b00","SmallScale":"IA","Identifier":"M"}},{"type":"Feature","id":197,"geometry":{"type":"Point","coordinates":[-80.5460659998077,43.4732559997285]},"properties":{"ObjectId":197,"buildingId":"167","buildingCode":"LHI","parentBuildingCode":"BMH","buildingName":"Lyle S. Hallman Institute for Health Promotion","alternateBuildingNames":null,"GlobalID":"fa8f985a-e6ab-48e7-88d9-7bf9df59ba93","SmallScale":"LHI","Identifier":"S"}},{"type":"Feature","id":198,"geometry":{"type":"Point","coordinates":[-80.5462076632297,43.4694773475386]},"properties":{"ObjectId":198,"buildingId":"800","buildingCode":"STJ","parentBuildingCode":null,"buildingName":"St. Jerome's University","alternateBuildingNames":null,"GlobalID":"174ce5fb-f3ca-4cba-9b42-1ce272e1c109","SmallScale":null,"Identifier":"L"}},{"type":"Feature","id":206,"geometry":{"type":"Point","coordinates":[-80.547864887071,43.4690020109142]},"properties":{"ObjectId":206,"buildingId":"820","buildingCode":"REN","parentBuildingCode":null,"buildingName":"Renison University College","alternateBuildingNames":null,"GlobalID":"66d0278b-0ac6-42cd-905e-ef4ca77e448c","SmallScale":"","Identifier":"M"}},{"type":"Feature","id":218,"geometry":{"type":"Point","coordinates":[-80.545249999848,43.4665600002374]},"properties":{"ObjectId":218,"buildingId":"840","buildingCode":"CGR","parentBuildingCode":null,"buildingName":"Conrad Grebel University College","alternateBuildingNames":null,"GlobalID":"5d86322f-c28f-4c58-b68d-95fa63b2f2c4","SmallScale":"","Identifier":"L"}},{"type":"Feature","id":224,"geometry":{"type":"Point","coordinates":[-80.5629933715247,43.4721059320188]},"properties":{"ObjectId":224,"buildingId":"CLVN(46)","buildingCode":"CLN","parentBuildingCode":null,"buildingName":"Columbia Lake Village North","alternateBuildingNames":null,"GlobalID":"6f34f417-745a-41f8-8c35-1007bc7a7ad5","SmallScale":"","Identifier":"L"}},{"type":"Feature","id":225,"geometry":{"type":"Point","coordinates":[-80.5628190004432,43.4735470002511]},"properties":{"ObjectId":225,"buildingId":"4601","buildingCode":"L01","parentBuildingCode":"CLN","buildingName":"Columbia Lake Village North Block 1","alternateBuildingNames":null,"GlobalID":"75e9bd98-115d-4b23-9502-93b21a9b29fc","SmallScale":"L01","Identifier":"S"}},{"type":"Feature","id":226,"geometry":{"type":"Point","coordinates":[-80.562532000388,43.4731729999767]},"properties":{"ObjectId":226,"buildingId":"4602","buildingCode":"L02","parentBuildingCode":"CLN","buildingName":"Columbia Lake Village North Block 2","alternateBuildingNames":null,"GlobalID":"4910c297-37cb-46d5-97b6-16b220d9a758","SmallScale":"L02","Identifier":"S"}},{"type":"Feature","id":227,"geometry":{"type":"Point","coordinates":[-80.5621249997839,43.4727390002745]},"properties":{"ObjectId":227,"buildingId":"4603","buildingCode":"L03","parentBuildingCode":"CLN","buildingName":"Columbia Lake Village North Block 3","alternateBuildingNames":null,"GlobalID":"eef60f2c-ab38-4b93-85f9-59d287ac63a6","SmallScale":"L03","Identifier":"S"}},{"type":"Feature","id":228,"geometry":{"type":"Point","coordinates":[-80.5617280001239,43.4724259996889]},"properties":{"ObjectId":228,"buildingId":"4604","buildingCode":"L04","parentBuildingCode":"CLN","buildingName":"Columbia Lake Village North Block 4","alternateBuildingNames":null,"GlobalID":"be43063a-fe2d-4f25-8a11-a74c80173b53","SmallScale":"L04","Identifier":"S"}},{"type":"Feature","id":229,"geometry":{"type":"Point","coordinates":[-80.5613680002738,43.4721939999188]},"properties":{"ObjectId":229,"buildingId":"4605","buildingCode":"L05","parentBuildingCode":"CLN","buildingName":"Columbia Lake Village North Block 5","alternateBuildingNames":null,"GlobalID":"01cf9aa6-f7a6-4088-bdfd-2b3848005994","SmallScale":"L05","Identifier":"S"}},{"type":"Feature","id":230,"geometry":{"type":"Point","coordinates":[-80.5611909998234,43.471895999756]},"properties":{"ObjectId":230,"buildingId":"4606","buildingCode":"L06","parentBuildingCode":"CLN","buildingName":"Columbia Lake Village North Block 6","alternateBuildingNames":null,"GlobalID":"b63911ce-85a8-472c-b2de-5a3d4db47fde","SmallScale":"L06","Identifier":"S"}},{"type":"Feature","id":231,"geometry":{"type":"Point","coordinates":[-80.5617060003826,43.4717229999981]},"properties":{"ObjectId":231,"buildingId":"4607","buildingCode":"L07","parentBuildingCode":"CLN","buildingName":"Columbia Lake Village North Block 7","alternateBuildingNames":null,"GlobalID":"6d061996-10c6-404c-8d8d-e726a8ee8dea","SmallScale":"L07","Identifier":"S"}},{"type":"Feature","id":232,"geometry":{"type":"Point","coordinates":[-80.5621940002792,43.4715359997216]},"properties":{"ObjectId":232,"buildingId":"4608","buildingCode":"L08","parentBuildingCode":"CLN","buildingName":"Columbia Lake Village North Block 8","alternateBuildingNames":null,"GlobalID":"83d1e931-5dff-4732-8d77-9f70f9386e49","SmallScale":"L08","Identifier":"S"}},{"type":"Feature","id":233,"geometry":{"type":"Point","coordinates":[-80.5626419999928,43.4718949997136]},"properties":{"ObjectId":233,"buildingId":"4609","buildingCode":"L09","parentBuildingCode":"CLN","buildingName":"Columbia Lake Village North Block 9","alternateBuildingNames":null,"GlobalID":"5623b445-c202-4b3f-aeca-32d4d81775f7","SmallScale":"L09","Identifier":"S"}},{"type":"Feature","id":234,"geometry":{"type":"Point","coordinates":[-80.5626179997034,43.4722429997787]},"properties":{"ObjectId":234,"buildingId":"4610","buildingCode":"L10","parentBuildingCode":"CLN","buildingName":"Columbia Lake Village North Block 10","alternateBuildingNames":null,"GlobalID":"4d1e7e1b-cef4-4f50-8b10-5c7e09afa9a8","SmallScale":"L10","Identifier":"S"}},{"type":"Feature","id":235,"geometry":{"type":"Point","coordinates":[-80.5624949996798,43.4725679997327]},"properties":{"ObjectId":235,"buildingId":"4611","buildingCode":"L11","parentBuildingCode":"CLN","buildingName":"Columbia Lake Village North Block 11","alternateBuildingNames":null,"GlobalID":"301fdb65-bf54-4b30-bc08-59daa409f6d7","SmallScale":"L11","Identifier":"S"}},{"type":"Feature","id":236,"geometry":{"type":"Point","coordinates":[-80.5621299998068,43.4722510000713]},"properties":{"ObjectId":236,"buildingId":"4612","buildingCode":"L12","parentBuildingCode":"CLN","buildingName":"Columbia Lake Village North Block 12","alternateBuildingNames":null,"GlobalID":"7550ef8a-50fb-4b3f-b47f-10c9ff82d5b5","SmallScale":"L12","Identifier":"S"}},{"type":"Feature","id":237,"geometry":{"type":"Point","coordinates":[-80.5626989998943,43.4728849996871]},"properties":{"ObjectId":237,"buildingId":"4613","buildingCode":"L13","parentBuildingCode":"CLN","buildingName":"Columbia Lake Village North Block 13","alternateBuildingNames":null,"GlobalID":"d9f5d1e0-bf8a-464f-b769-1c160fecf77c","SmallScale":"L13","Identifier":"S"}},{"type":"Feature","id":238,"geometry":{"type":"Point","coordinates":[-80.5629640002081,43.4724469997394]},"properties":{"ObjectId":238,"buildingId":"4614","buildingCode":"L14","parentBuildingCode":"CLN","buildingName":"Columbia Lake Village North Block 14","alternateBuildingNames":null,"GlobalID":"a279aa7a-43fd-4e4d-8538-03ead576ff17","SmallScale":"L14","Identifier":"S"}},{"type":"Feature","id":239,"geometry":{"type":"Point","coordinates":[-80.563334000104,43.472148000134]},"properties":{"ObjectId":239,"buildingId":"4615","buildingCode":"L15","parentBuildingCode":"CLN","buildingName":"Columbia Lake Village North Block 15","alternateBuildingNames":null,"GlobalID":"f2e734b3-c842-40ec-aafa-b2c9eb4efe55","SmallScale":"L15","Identifier":"S"}},{"type":"Feature","id":240,"geometry":{"type":"Point","coordinates":[-80.5640499996062,43.4720810001438]},"properties":{"ObjectId":240,"buildingId":"4616","buildingCode":"L16","parentBuildingCode":"CLN","buildingName":"Columbia Lake Village North Block 16","alternateBuildingNames":null,"GlobalID":"826601cc-6881-48ef-8fe2-5cb28c757cc8","SmallScale":"L16","Identifier":"S"}},{"type":"Feature","id":241,"geometry":{"type":"Point","coordinates":[-80.5636400004257,43.4724509998724]},"properties":{"ObjectId":241,"buildingId":"4617","buildingCode":"L17","parentBuildingCode":"CLN","buildingName":"Columbia Lake Village North Block 17","alternateBuildingNames":null,"GlobalID":"76d53b92-73b3-458d-8f82-903f85568ce1","SmallScale":"L17","Identifier":"S"}},{"type":"Feature","id":242,"geometry":{"type":"Point","coordinates":[-80.5633149998374,43.4726519996933]},"properties":{"ObjectId":242,"buildingId":"4618","buildingCode":"L18","parentBuildingCode":"CLN","buildingName":"Columbia Lake Village North Block 18","alternateBuildingNames":null,"GlobalID":"fe135201-4d67-4c6d-9ab2-72765a99d2ab","SmallScale":"L18","Identifier":"S"}},{"type":"Feature","id":243,"geometry":{"type":"Point","coordinates":[-80.5631759999202,43.4732840002788]},"properties":{"ObjectId":243,"buildingId":"4619","buildingCode":"L19","parentBuildingCode":"CLN","buildingName":"Columbia Lake Village North Block 19","alternateBuildingNames":null,"GlobalID":"0a78212b-916b-474e-8233-39ead8ddd741","SmallScale":"L19","Identifier":"S"}},{"type":"Feature","id":244,"geometry":{"type":"Point","coordinates":[-80.5634899997396,43.4729999999628]},"properties":{"ObjectId":244,"buildingId":"4620","buildingCode":"L20","parentBuildingCode":"CLN","buildingName":"Columbia Lake Village North Block 20","alternateBuildingNames":null,"GlobalID":"fde74e88-237e-49a9-bce7-8d8d03fc7994","SmallScale":"L20","Identifier":"S"}},{"type":"Feature","id":245,"geometry":{"type":"Point","coordinates":[-80.5638520001379,43.4726730003172]},"properties":{"ObjectId":245,"buildingId":"4621","buildingCode":"L21","parentBuildingCode":"CLN","buildingName":"Columbia Lake Village North Block 21","alternateBuildingNames":null,"GlobalID":"5d1a550a-0047-414b-8b7d-0738fd008d92","SmallScale":"L21","Identifier":"S"}},{"type":"Feature","id":246,"geometry":{"type":"Point","coordinates":[-80.5642349995542,43.4723559999027]},"properties":{"ObjectId":246,"buildingId":"4622","buildingCode":"L22","parentBuildingCode":"CLN","buildingName":"Columbia Lake Village North Block 22","alternateBuildingNames":null,"GlobalID":"c34a58de-9295-4dd4-b94d-46cf9e0f0849","SmallScale":"L22","Identifier":"S"}},{"type":"Feature","id":247,"geometry":{"type":"Point","coordinates":[-80.5647130003034,43.4718979998407]},"properties":{"ObjectId":247,"buildingId":"4623","buildingCode":"L23","parentBuildingCode":"CLN","buildingName":"Columbia Lake Village North Block 23","alternateBuildingNames":null,"GlobalID":"d24a622b-dd7e-4e94-a0a6-766f295f3b42","SmallScale":"L23","Identifier":"S"}},{"type":"Feature","id":248,"geometry":{"type":"Point","coordinates":[-80.5650110002292,43.4716589996757]},"properties":{"ObjectId":248,"buildingId":"4624","buildingCode":"L24","parentBuildingCode":"CLN","buildingName":"Columbia Lake Village North Block 24","alternateBuildingNames":null,"GlobalID":"baa68b81-2ab9-4307-9864-b046323a2dff","SmallScale":"L24","Identifier":"S"}},{"type":"Feature","id":249,"geometry":{"type":"Point","coordinates":[-80.5653269996984,43.4713770003004]},"properties":{"ObjectId":249,"buildingId":"4625","buildingCode":"L25","parentBuildingCode":"CLN","buildingName":"Columbia Lake Village North Block 25","alternateBuildingNames":null,"GlobalID":"0facc62e-e178-4e39-9f0e-953f72060724","SmallScale":"L25","Identifier":"S"}},{"type":"Feature","id":250,"geometry":{"type":"Point","coordinates":[-80.5649950003357,43.4711939998214]},"properties":{"ObjectId":250,"buildingId":"4626","buildingCode":"L26","parentBuildingCode":"CLN","buildingName":"Columbia Lake Village North Block 26","alternateBuildingNames":null,"GlobalID":"d1025da5-8ec7-4418-aae8-2f05147028c7","SmallScale":"L26","Identifier":"S"}},{"type":"Feature","id":251,"geometry":{"type":"Point","coordinates":[-80.5645169995865,43.471153000201]},"properties":{"ObjectId":251,"buildingId":"4627","buildingCode":"L27","parentBuildingCode":"CLN","buildingName":"Columbia Lake Village North Block 27","alternateBuildingNames":null,"GlobalID":"7eafd8a2-30b6-4805-99e9-c60b3863e33b","SmallScale":"L27","Identifier":"S"}},{"type":"Feature","id":252,"geometry":{"type":"Point","coordinates":[-80.5640499996062,43.471267999861]},"properties":{"ObjectId":252,"buildingId":"4628","buildingCode":"L28","parentBuildingCode":"CLN","buildingName":"Columbia Lake Village North Block 28","alternateBuildingNames":null,"GlobalID":"d6072323-01b4-4f73-a803-505185d923a0","SmallScale":"L28","Identifier":"S"}},{"type":"Feature","id":253,"geometry":{"type":"Point","coordinates":[-80.5635779996031,43.471359000032]},"properties":{"ObjectId":253,"buildingId":"4629","buildingCode":"L29","parentBuildingCode":"CLN","buildingName":"Columbia Lake Village North Block 29","alternateBuildingNames":null,"GlobalID":"f138e56c-dd92-4261-99d7-35c78fff533e","SmallScale":"L29","Identifier":"S"}},{"type":"Feature","id":254,"geometry":{"type":"Point","coordinates":[-80.5629430002917,43.4714140002194]},"properties":{"ObjectId":254,"buildingId":"4630","buildingCode":"L30","parentBuildingCode":"CLN","buildingName":"Columbia Lake Village North Block 30","alternateBuildingNames":null,"GlobalID":"b12f6a55-ee32-4baf-a27e-84efcda46037","SmallScale":"L30","Identifier":"S"}},{"type":"Feature","id":255,"geometry":{"type":"Point","coordinates":[-80.5629480003146,43.4717189998169]},"properties":{"ObjectId":255,"buildingId":"4631","buildingCode":"L31","parentBuildingCode":"CLN","buildingName":"Columbia Lake Village North Block 31","alternateBuildingNames":null,"GlobalID":"98d623db-e747-48ac-badc-2dc7c7bf599f","SmallScale":"L31","Identifier":"S"}},{"type":"Feature","id":256,"geometry":{"type":"Point","coordinates":[-80.5634499995566,43.4717929998656]},"properties":{"ObjectId":256,"buildingId":"4632","buildingCode":"L32","parentBuildingCode":"CLN","buildingName":"Columbia Lake Village North Block 32","alternateBuildingNames":null,"GlobalID":"5d806200-8681-4f69-a5b0-5330b79db645","SmallScale":"L32","Identifier":"S"}},{"type":"Feature","id":257,"geometry":{"type":"Point","coordinates":[-80.5638949997956,43.4716059998057]},"properties":{"ObjectId":257,"buildingId":"4633","buildingCode":"L33","parentBuildingCode":"CLN","buildingName":"Columbia Lake Village North Block 33","alternateBuildingNames":null,"GlobalID":"c14ae4b3-04e5-4d80-b5f2-c58e5f8b1938","SmallScale":"L33","Identifier":"S"}},{"type":"Feature","id":258,"geometry":{"type":"Point","coordinates":[-80.5647049999075,43.4714390001696]},"properties":{"ObjectId":258,"buildingId":"4634","buildingCode":"L34","parentBuildingCode":"CLN","buildingName":"Columbia Lake Village North Block 34","alternateBuildingNames":null,"GlobalID":"d48f5b9f-cd97-4df4-8ccc-6647c32e77e1","SmallScale":"L34","Identifier":"S"}},{"type":"Feature","id":259,"geometry":{"type":"Point","coordinates":[-80.5642349995542,43.4718499997443]},"properties":{"ObjectId":259,"buildingId":"4635","buildingCode":"L35","parentBuildingCode":"CLN","buildingName":"Columbia Lake Village North Block 35","alternateBuildingNames":null,"GlobalID":"0c87522e-b7bb-418b-a76c-3bc2dbd8ade6","SmallScale":"L35","Identifier":"S"}},{"type":"Feature","id":261,"geometry":{"type":"Point","coordinates":[-80.546239999885,43.4736099998639]},"properties":{"ObjectId":261,"buildingId":"032","buildingCode":"EXP","parentBuildingCode":"BMH","buildingName":"Expansion","alternateBuildingNames":null,"GlobalID":"df8ce94b-c5da-4c6a-b3a0-5618e713a344","SmallScale":"EXP","Identifier":"S"}},{"type":"Feature","id":278,"geometry":{"type":"Point","coordinates":[-80.550200487818,43.4716971057308]},"properties":{"ObjectId":278,"buildingId":"V1(20)","buildingCode":"V1","parentBuildingCode":null,"buildingName":"Student Village 1","alternateBuildingNames":null,"GlobalID":"11b0b78a-ea30-42a5-8970-f73e68db165c","SmallScale":"","Identifier":"L"}},{"type":"Feature","id":279,"geometry":{"type":"Point","coordinates":[-80.5543662156407,43.4702960091942]},"properties":{"ObjectId":279,"buildingId":"REV(25)","buildingCode":"REV","parentBuildingCode":null,"buildingName":"Ron Eydt Village","alternateBuildingNames":null,"GlobalID":"d379fa6b-a1b2-4af0-bb48-3f48f86e68eb","SmallScale":"","Identifier":"L"}},{"type":"Feature","id":282,"geometry":{"type":"Point","coordinates":[-80.5491583558502,43.4741073913651]},"properties":{"ObjectId":282,"buildingId":null,"buildingCode":null,"parentBuildingCode":null,"buildingName":"University of Waterloo","alternateBuildingNames":null,"GlobalID":"ed25e75a-49b9-4fe8-b563-e90a1da86a04","SmallScale":null,"Identifier":"U"}},{"type":"Feature","id":283,"geometry":{"type":"Point","coordinates":[-80.54577628915,43.4735009350025]},"properties":{"ObjectId":283,"buildingId":"032","buildingCode":"BMH","parentBuildingCode":null,"buildingName":"B.C. Matthews Hall","alternateBuildingNames":null,"GlobalID":"3855f1d1-7e74-463a-864f-2d688922214e","SmallScale":null,"Identifier":"L"}},{"type":"Feature","id":284,"geometry":{"type":"Point","coordinates":[-80.5397367990992,43.4740005407727]},"properties":{"ObjectId":284,"buildingId":"072","buildingCode":"AVR","parentBuildingCode":null,"buildingName":"Autonomous Vehicle Research and Intelligence Lab (AVRIL)","alternateBuildingNames":null,"GlobalID":"55a99729-1648-49da-9439-3fbdb6757cd5","SmallScale":"AVR","Identifier":"M"}},{"type":"Feature","id":285,"geometry":{"type":"Point","coordinates":[-80.546260423268,43.4677242573759]},"properties":{"ObjectId":285,"buildingId":"830","buildingCode":"UTD","parentBuildingCode":null,"buildingName":"United College","alternateBuildingNames":null,"GlobalID":"83d8a7cb-d474-4e4e-b461-cb92a914df38","SmallScale":null,"Identifier":"L"}},{"type":"Feature","id":286,"geometry":{"type":"Point","coordinates":[-80.5133998025991,43.4513676027103]},"properties":{"ObjectId":286,"buildingId":"173","buildingCode":"CAT","parentBuildingCode":null,"buildingName":"Catalyst 137","alternateBuildingNames":null,"GlobalID":"ff37b195-f3f9-4120-8304-43d6bd12375c","SmallScale":"CAT","Identifier":"M"}},{"type":"Feature","id":287,"geometry":{"type":"Point","coordinates":[-80.3224595046459,43.5356306281455]},"properties":{"ObjectId":287,"buildingId":"128","buildingCode":"TUL","parentBuildingCode":null,"buildingName":"Tri-University Library","alternateBuildingNames":null,"GlobalID":"e06408d8-7da6-40cf-8680-4c19a3adfcc7","SmallScale":"TUL","Identifier":"M"}},{"type":"Feature","id":288,"geometry":{"type":"Point","coordinates":[-79.386333414919,43.6701504530149]},"properties":{"ObjectId":288,"buildingId":"162","buildingCode":"MTT","parentBuildingCode":null,"buildingName":"Master of Taxation Toronto","alternateBuildingNames":null,"GlobalID":"0f1e0556-4382-4561-9de6-fc5d175900a2","SmallScale":"MTT","Identifier":"M"}},{"type":"Feature","id":289,"geometry":{"type":"Point","coordinates":[-79.380122226578,43.6536765626659]},"properties":{"ObjectId":289,"buildingId":"165","buildingCode":"TEC","parentBuildingCode":null,"buildingName":"220 Yonge Street","alternateBuildingNames":null,"GlobalID":"ade077ad-cc04-49f8-8d54-183f6a808e61","SmallScale":"TEC","Identifier":"M"}},{"type":"Feature","id":292,"geometry":{"type":"Point","coordinates":[-80.5707962623659,43.4765406448695]},"properties":{"ObjectId":292,"buildingId":"167","buildingCode":"RIA","parentBuildingCode":null,"buildingName":"Research Institute for Aging Foundation","alternateBuildingNames":null,"GlobalID":"593e844d-76b4-4163-89f4-f84d96463fa8","SmallScale":"RIA","Identifier":"M"}},{"type":"Feature","id":293,"geometry":{"type":"Point","coordinates":[-80.5584790703887,43.4735330881319]},"properties":{"ObjectId":293,"buildingId":"124","buildingCode":"BEG","parentBuildingCode":null,"buildingName":"BEG Test Building","alternateBuildingNames":null,"GlobalID":"be9a1791-f3f8-4df0-b9b2-cce0b8812a4b","SmallScale":"BEG","Identifier":"M"}},{"type":"Feature","id":294,"geometry":{"type":"Point","coordinates":[-80.5307442872885,43.4692842668465]},"properties":{"ObjectId":294,"buildingId":"095","buildingCode":"TEN","parentBuildingCode":null,"buildingName":"Tennis Courts","alternateBuildingNames":null,"GlobalID":"368cca49-eae6-4638-a414-a25226092a13","SmallScale":"TEN","Identifier":"M"}},{"type":"Feature","id":295,"geometry":{"type":"Point","coordinates":[-80.5375931858811,43.4702211027176]},"properties":{"ObjectId":295,"buildingId":"074","buildingCode":"RES-NRB","parentBuildingCode":null,"buildingName":"New Residence Building (Under Construction)","alternateBuildingNames":null,"GlobalID":"0abed8be-9d9f-4939-9ed1-0e049b0b2a69","SmallScale":"RES-NRB","Identifier":"M"}},{"type":"Feature","id":296,"geometry":{"type":"Point","coordinates":[-80.5435927991034,43.4727928143195]},"properties":{"ObjectId":296,"buildingId":"073","buildingCode":"M4","parentBuildingCode":null,"buildingName":"Math 4 (Under Construction)","alternateBuildingNames":null,"GlobalID":"92ee149b-1f6a-45b0-af71-f05b0f2c561f","SmallScale":"M4","Identifier":"M"}},{"type":"Feature","id":297,"geometry":{"type":"Point","coordinates":[-80.5801903231668,43.4364061490864]},"properties":{"ObjectId":297,"buildingId":"135","buildingCode":"FRF","parentBuildingCode":null,"buildingName":"Fire Research Facility","alternateBuildingNames":null,"GlobalID":"0ba69629-e5e1-43ca-b19a-802ca3ad0f12","SmallScale":"FRF","Identifier":"M"}},{"type":"Feature","id":298,"geometry":{"type":"Point","coordinates":[-80.578911680056,43.4347869602523]},"properties":{"ObjectId":298,"buildingId":"136","buildingCode":"PTB","parentBuildingCode":null,"buildingName":"Pavement & Transportation Building","alternateBuildingNames":null,"GlobalID":"9114ad9c-459c-40be-8e9e-ab43fd5ab5de","SmallScale":"PTB","Identifier":"M"}},{"type":"Feature","id":299,"geometry":{"type":"Point","coordinates":[-80.5790866997211,43.4348419800116]},"properties":{"ObjectId":299,"buildingId":"137","buildingCode":"PTG","parentBuildingCode":null,"buildingName":"Pavement & Transportion Garage","alternateBuildingNames":null,"GlobalID":"802dbe90-eb63-4da1-b80c-f5ff200f8d6e","SmallScale":"PTB","Identifier":"M"}},{"type":"Feature","id":300,"geometry":{"type":"Point","coordinates":[-80.5257914801893,43.4638362198819]},"properties":{"ObjectId":300,"buildingId":"156","buildingCode":"CIGI","parentBuildingCode":null,"buildingName":"Centre for International Governance Innovation (BSIA)","alternateBuildingNames":null,"GlobalID":"4fd7df2e-6cb3-4521-ad98-6b33c199095a","SmallScale":"CIGI","Identifier":"M"}},{"type":"Feature","id":302,"geometry":{"type":"Point","coordinates":[-80.5456999650755,43.469860441778]},"properties":{"ObjectId":302,"buildingId":"814","buildingCode":"SJ2","parentBuildingCode":"STJ","buildingName":"St. Jerome's University - Academic Centre","alternateBuildingNames":null,"GlobalID":"88964880-9629-4c49-8db7-eb0fa1d75eeb","SmallScale":"SJ2","Identifier":"S"}},{"type":"Feature","id":303,"geometry":{"type":"Point","coordinates":[-80.5457729756502,43.4687194596049]},"properties":{"ObjectId":303,"buildingId":"813","buildingCode":"SJ1","parentBuildingCode":"STJ","buildingName":"St. Jerome's University - Classrooms and Library Building","alternateBuildingNames":null,"GlobalID":"80980a05-46b5-4bea-9ed1-d79691ade400","SmallScale":"SJ1","Identifier":"S"}},{"type":"Feature","id":304,"geometry":{"type":"Point","coordinates":[-80.5462188354888,43.4694454943279]},"properties":{"ObjectId":304,"buildingId":"801","buildingCode":"SH","parentBuildingCode":"STJ","buildingName":"Sweeney Hall","alternateBuildingNames":null,"GlobalID":"a029b026-4097-47d6-a388-4b83ed55a642","SmallScale":"SH","Identifier":"S"}},{"type":"Feature","id":305,"geometry":{"type":"Point","coordinates":[-80.54513637472,43.4689684799484]},"properties":{"ObjectId":305,"buildingId":"812","buildingCode":"LH","parentBuildingCode":"STJ","buildingName":"St. Jerome's University - Louis Hall","alternateBuildingNames":null,"GlobalID":"841f3291-6eca-493e-9de7-7d0872401ecc","SmallScale":"LH","Identifier":"S"}},{"type":"Feature","id":306,"geometry":{"type":"Point","coordinates":[-80.5467088790247,43.4693022370713]},"properties":{"ObjectId":306,"buildingId":"815","buildingCode":"RC","parentBuildingCode":"STJ","buildingName":"St. Jerome's University - Residence Complex","alternateBuildingNames":null,"GlobalID":"14e0a5eb-17d6-4e51-8ac8-90a2d9be163f","SmallScale":"RC","Identifier":"S"}},{"type":"Feature","id":307,"geometry":{"type":"Point","coordinates":[-80.545277074871,43.4692133158192]},"properties":{"ObjectId":307,"buildingId":"811","buildingCode":"FR","parentBuildingCode":"STJ","buildingName":"St. Jerome's University - Finn Residence","alternateBuildingNames":null,"GlobalID":"e20bd68b-28ad-44e4-b640-e97df6d584cf","SmallScale":"FR","Identifier":"S"}},{"type":"Feature","id":308,"geometry":{"type":"Point","coordinates":[-80.5463094262966,43.4677865815429]},"properties":{"ObjectId":308,"buildingId":"831","buildingCode":"UTD","parentBuildingCode":"UTD","buildingName":"United College Main Building","alternateBuildingNames":null,"GlobalID":"7f4665f5-feb3-41a8-aac3-2a758c2793f2","SmallScale":null,"Identifier":"S"}},{"type":"Feature","id":309,"geometry":{"type":"Point","coordinates":[-80.5466364462489,43.467570511341]},"properties":{"ObjectId":309,"buildingId":"832","buildingCode":"WW","parentBuildingCode":"UTD","buildingName":"United College West Wing","alternateBuildingNames":null,"GlobalID":"897583ee-e876-4d5d-890b-a42590e1283c","SmallScale":null,"Identifier":"S"}},{"type":"Feature","id":310,"geometry":{"type":"Point","coordinates":[-80.5458605020401,43.4681427858232]},"properties":{"ObjectId":310,"buildingId":"834","buildingCode":"GRAD","parentBuildingCode":"UTD","buildingName":"United College Graduate Apartment","alternateBuildingNames":null,"GlobalID":"ccfd8a4b-e707-42cc-9a3d-bbd5180bfc39","SmallScale":null,"Identifier":"S"}},{"type":"Feature","id":311,"geometry":{"type":"Point","coordinates":[-80.5460128326529,43.4676160066724]},"properties":{"ObjectId":311,"buildingId":"833","buildingCode":"EW","parentBuildingCode":"UTD","buildingName":"United College East Wing","alternateBuildingNames":null,"GlobalID":"fb6e164d-f91b-432b-b3ed-a4034de4c8a1","SmallScale":null,"Identifier":"S"}},{"type":"Feature","id":312,"geometry":{"type":"Point","coordinates":[-80.5465528786743,43.4679513008099]},"properties":{"ObjectId":312,"buildingId":"835","buildingCode":"NW","parentBuildingCode":"UTD","buildingName":"United College North Wing","alternateBuildingNames":null,"GlobalID":"dc1b3019-6b88-4f1c-878f-64250d0835c2","SmallScale":null,"Identifier":"S"}},{"type":"Feature","id":313,"geometry":{"type":"Point","coordinates":[-80.5459257446789,43.46785107928]},"properties":{"ObjectId":313,"buildingId":"836","buildingCode":"GW","parentBuildingCode":"UTD","buildingName":"United College Green Wing","alternateBuildingNames":null,"GlobalID":"b056cb44-9e9f-4cfc-91c8-53e8c221a94f","SmallScale":null,"Identifier":"S"}},{"type":"Feature","id":314,"geometry":{"type":"Point","coordinates":[-80.5454119549693,43.4666148277194]},"properties":{"ObjectId":314,"buildingId":"841","buildingCode":"CGR","parentBuildingCode":"CGR","buildingName":"Conrad Grebel University College Residence","alternateBuildingNames":null,"GlobalID":"984b4a7e-1bc8-4b29-8d91-1ce4b2840fb0","SmallScale":null,"Identifier":"S"}},{"type":"Feature","id":315,"geometry":{"type":"Point","coordinates":[-80.544626843054,43.4663540327156]},"properties":{"ObjectId":315,"buildingId":"842","buildingCode":"AD","parentBuildingCode":"CGR","buildingName":"Conrad Grebel University College Administration Building","alternateBuildingNames":null,"GlobalID":"1fa24c18-aa52-4795-9561-94c76926ec77","SmallScale":null,"Identifier":"S"}},{"type":"Feature","id":316,"geometry":{"type":"Point","coordinates":[-80.5453526110948,43.4670538787681]},"properties":{"ObjectId":316,"buildingId":"845","buildingCode":"APT","parentBuildingCode":"CGR","buildingName":"Conrad Grebel University College Apartments","alternateBuildingNames":null,"GlobalID":"2045c42e-6ded-4541-88ed-efedbafc7da3","SmallScale":null,"Identifier":"S"}},{"type":"Feature","id":317,"geometry":{"type":"Point","coordinates":[-80.5393334331433,43.4726751214806]},"properties":{"ObjectId":317,"buildingId":"067","buildingCode":"PSE","parentBuildingCode":null,"buildingName":"Pearl Sullivan Engineering Building [formerly Engineering 7 (E7)]","alternateBuildingNames":null,"GlobalID":"1d0e0b09-03c5-47cd-bc3d-fe544f302030","SmallScale":"PSE","Identifier":"M"}},{"type":"Feature","id":318,"geometry":{"type":"Point","coordinates":[-80.5553150687928,43.4792615482057]},"properties":{"ObjectId":318,"buildingId":"075","buildingCode":"WFE","parentBuildingCode":null,"buildingName":"WaterFEL (Under Construction)","alternateBuildingNames":null,"GlobalID":"c212e6c4-b2ef-4ff4-a9bf-e75ecdae1714","SmallScale":null,"Identifier":"M"}}]}